     2.100          NAVIGATION                              RINEX VERSION / TYPE
fic2rin                                 12/12/2014 00:15:26 PGM / RUN BY / DATE
                                                            END OF HEADER
10 14 12 11 16  0  0.0 -.153714325279D-03 -.170530256582D-11  .000000000000D+00
     .340000000000D+02  .280937500000D+02  .538665294715D-08  .909075980309D+00
     .171177089214D-05  .144201287767D-01  .659748911858D-05  .515363784790D+04
     .403200000000D+06 -.149011611938D-06  .213040466365D+01  .143423676491D-06
     .941248759978D+00  .244343750000D+03  .907542592003D+00 -.862571643857D-08
    -.560737642688D-10  .100000000000D+01  .182200000000D+04  .000000000000D+00
     .240000000000D+01  .000000000000D+00 -.325962901115D-08  .340000000000D+02
     .396006000000D+06  .400000000000D+01
11 14 12 11 16  0  0.0 -.542821828276D-03 -.272848410532D-11  .000000000000D+00
     .570000000000D+02 -.626875000000D+02  .591560355149D-08 -.285588623464D+01
    -.335089862347D-05  .156299552182D-01  .895932316780D-05  .515372292709D+04
     .403200000000D+06  .255182385445D-06  .739850162186D+00 -.447034835815D-07
     .891935476807D+00  .165281250000D+03  .136703392256D+01 -.839392106908D-08
     .200722646618D-09  .100000000000D+01  .182200000000D+04  .000000000000D+00
     .240000000000D+01  .000000000000D+00 -.121071934700D-07  .570000000000D+02
     .396006000000D+06  .400000000000D+01
12 14 12 11 16  0  0.0  .252807512879D-03  .284217094304D-11  .000000000000D+00
     .140000000000D+02  .226250000000D+02  .394945022474D-08  .292063526240D+01
     .118091702461D-05  .503159535583D-02  .347197055817D-05  .515376836967D+04
     .403200000000D+06  .167638063431D-07 -.978216781764D+00 -.651925802231D-07
     .988790578091D+00  .327687500000D+03  .498259566671D+00 -.795211695188D-08
     .225723688012D-09  .100000000000D+01  .182200000000D+04  .000000000000D+00
     .240000000000D+01  .000000000000D+00 -.121071934700D-07  .140000000000D+02
     .396006000000D+06  .400000000000D+01
13 14 12 11 16  0  0.0 -.686421990395D-04 -.341060513165D-11  .000000000000D+00
     .101000000000D+03  .487500000000D+01  .417160233541D-08 -.188135698513D+01
     .199303030968D-06  .586754013784D-02  .808201730251D-05  .515589175606D+04
     .403200000000D+06 -.160187482834D-06 -.300709951258D+01  .104308128357D-06
     .976032974228D+00  .229875000000D+03  .220914647504D+01 -.781603985515D-08
    -.480377152494D-09  .100000000000D+01  .182200000000D+04  .000000000000D+00
     .240000000000D+01  .000000000000D+00 -.111758708954D-07  .101000000000D+03
     .396006000000D+06  .400000000000D+01
14 14 12 11 16  0  0.0  .107371713966D-03 -.363797880709D-11  .000000000000D+00
     .660000000000D+02  .359375000000D+01  .447982946002D-08 -.330607340768D+00
     .210478901863D-06  .778882612940D-02  .817514955997D-05  .515375794983D+04
     .403200000000D+06 -.111758708954D-07 -.304051218554D+01  .987201929092D-07
     .968536589928D+00  .228593750000D+03 -.196628788504D+01 -.811212361680D-08
    -.464305054455D-09  .100000000000D+01  .182200000000D+04  .000000000000D+00
     .240000000000D+01  .000000000000D+00 -.931322574615D-08  .660000000000D+02
     .396006000000D+06  .400000000000D+01
15 14 12 11 16  0  0.0 -.219721812755D-03 -.216004991671D-11  .000000000000D+00
     .680000000000D+02 -.275000000000D+01  .518378735412D-08 -.101126357306D+01
    -.178813934326D-06  .696569471620D-02  .730343163013D-05  .515381301498D+04
     .403200000000D+06  .141561031342D-06  .312418050522D+01 -.577419996262D-07
     .935113884275D+00  .224656250000D+03  .325594024378D+00 -.832856120372D-08
    -.435018120251D-09  .100000000000D+01  .182200000000D+04  .000000000000D+00
     .240000000000D+01  .000000000000D+00 -.102445483208D-07  .680000000000D+02
     .396006000000D+06  .400000000000D+01
16 14 12 11 16  0  0.0 -.174013897777D-03  .295585778076D-11  .000000000000D+00
     .560000000000D+02  .195312500000D+02  .396409369184D-08  .774422329387D+00
     .108405947685D-05  .779526203405D-02  .378303229809D-05  .515371105766D+04
     .403200000000D+06  .204890966415D-07 -.959580857069D+00  .949949026108D-07
     .989368459990D+00  .319406250000D+03  .228596970301D+00 -.807569352791D-08
     .135719938995D-09  .100000000000D+01  .182200000000D+04  .000000000000D+00
     .240000000000D+01  .000000000000D+00 -.102445483208D-07  .560000000000D+02
     .396006000000D+06  .400000000000D+01
17 14 12 11 16  0  0.0 -.143225304782D-03 -.238742359215D-11  .000000000000D+00
     .400000000000D+02 -.768125000000D+02  .439911181209D-08 -.142809822979D+00
    -.403821468353D-05  .983534625266D-02  .668130815029D-05  .515368684769D+04
     .403200000000D+06 -.782310962677D-07  .692858965957D-01  .931322574615D-07
     .971040461996D+00  .259187500000D+03 -.207205594200D+01 -.819748431527D-08
    -.657170230921D-10  .100000000000D+01  .182200000000D+04  .000000000000D+00
     .240000000000D+01  .000000000000D+00 -.107102096081D-07  .400000000000D+02
     .396006000000D+06  .400000000000D+01
18 14 12 11 16  0  0.0  .364403706044D-03  .261479726760D-11  .000000000000D+00
     .960000000000D+02  .237187500000D+02  .577524056195D-08  .133806400015D+01
     .112876296043D-05  .155078794342D-01  .664032995701D-05  .515374157524D+04
     .403200000000D+06 -.342726707458D-06  .210476289303D+01 -.484287738800D-07
     .925004110934D+00  .237750000000D+03 -.200036956214D+01 -.879465204684D-08
     .985755346381D-10  .100000000000D+01  .182200000000D+04  .000000000000D+00
     .240000000000D+01  .000000000000D+00 -.111758708954D-07  .960000000000D+02
     .396006000000D+06  .400000000000D+01
19 14 12 11 16  0  0.0 -.491989776492D-03 -.159161572810D-11  .000000000000D+00
     .640000000000D+02 -.869687500000D+02  .441411243693D-08 -.988025704539D+00
    -.449270009995D-05  .107520523015D-01  .647455453873D-05  .515367626190D+04
     .403200000000D+06  .299885869026D-06  .119425893791D+00 -.186264514923D-08
     .968122554853D+00  .254906250000D+03  .513693387517D+00 -.808783689087D-08
    -.660741808263D-10  .100000000000D+01  .182200000000D+04  .000000000000D+00
     .240000000000D+01  .000000000000D+00 -.149011611938D-07  .640000000000D+02
     .396006000000D+06  .400000000000D+01
20 14 12 11 16  0  0.0  .266214367002D-03  .409272615798D-11  .000000000000D+00
     .480000000000D+02  .259687500000D+02  .554594529660D-08  .186805450865D+01
     .119954347610D-05  .630547513720D-02  .653974711895D-05  .515367034340D+04
     .403200000000D+06 -.372529029846D-07  .205189034919D+01 -.169500708580D-06
     .926105718969D+00  .232718750000D+03  .133901316919D+01 -.845106630655D-08
     .145006040084D-09  .100000000000D+01  .182200000000D+04  .000000000000D+00
     .240000000000D+01  .000000000000D+00 -.838190317154D-08  .480000000000D+02
     .396006000000D+06  .400000000000D+01
21 14 12 11 16  0  0.0 -.399657059461D-03 -.204636307899D-11  .000000000000D+00
     .240000000000D+02 -.420937500000D+02  .498413618071D-08  .231411416659D+01
    -.232458114624D-05  .218265631702D-01  .109262764454D-04  .515365256119D+04
     .403200000000D+06  .165775418282D-06  .106030763688D+01 -.368803739548D-06
     .932963953533D+00  .151406250000D+03 -.197127967020D+01 -.783746931920D-08
     .280368821344D-09  .100000000000D+01  .182200000000D+04  .000000000000D+00
     .240000000000D+01  .000000000000D+00 -.116415321827D-07  .240000000000D+02
     .396006000000D+06  .400000000000D+01
22 14 12 11 16  0  0.0  .295774079859D-03  .409272615798D-11  .000000000000D+00
     .120000000000D+03  .233437500000D+02  .583845748090D-08  .824782415292D+00
     .132434070110D-05  .730783981271D-02  .638514757156D-05  .515370788383D+04
     .403200000000D+06 -.372529029846D-07  .210626624471D+01  .577419996262D-07
     .922802812750D+00  .238312500000D+03 -.206357270973D+01 -.879036615403D-08
     .942896418278D-10  .100000000000D+01  .182200000000D+04  .000000000000D+00
     .240000000000D+01  .000000000000D+00 -.176951289177D-07  .120000000000D+03
     .396006000000D+06  .400000000000D+01
23 14 12 11 16  0  0.0 -.737188383937D-04 -.272848410532D-11  .000000000000D+00
     .590000000000D+02  .125000000000D+01  .477377027526D-08 -.143719111269D+01
    -.819563865662D-07  .969104841352D-02  .726431608200D-05  .515369406128D+04
     .403200000000D+06  .108033418655D-06 -.310936648473D+01 -.178813934326D-06
     .950251426175D+00  .232031250000D+03 -.271766607283D+01 -.807462205471D-08
    -.350371737246D-09  .100000000000D+01  .182200000000D+04  .000000000000D+00
     .240000000000D+01  .000000000000D+00 -.200234353542D-07  .590000000000D+02
     .396006000000D+06  .400000000000D+01
24 14 12 11 16  0  0.0 -.399062409997D-04 -.682121026330D-12  .000000000000D+00
     .400000000000D+01  .646875000000D+02  .434696678290D-08 -.204044598349D+01
     .335276126862D-05  .267583189998D-02  .903010368347D-05  .515369886589D+04
     .403200000000D+06 -.540167093277D-07 -.208264938824D+01  .558793544769D-08
     .955148850195D+00  .203968750000D+03  .217017859596D+00 -.794497379719D-08
    -.142863093678D-11  .100000000000D+01  .182200000000D+04  .000000000000D+00
     .240000000000D+01  .000000000000D+00  .279396772385D-08  .400000000000D+01
     .396006000000D+06  .400000000000D+01
25 14 12 11 16  0  0.0  .987108796835D-05 -.204636307899D-11  .000000000000D+00
     .590000000000D+02  .315937500000D+02  .424410535545D-08  .217910151411D+01
     .166147947311D-05  .385270232800D-02  .339001417160D-05  .515375370216D+04
     .403200000000D+06 -.521540641785D-07 -.102292568242D+01 -.614672899246D-07
     .977380152081D+00  .321562500000D+03  .678916268251D+00 -.817426906255D-08
     .240009997380D-09  .100000000000D+01  .182200000000D+04  .000000000000D+00
     .240000000000D+01  .000000000000D+00  .512227416039D-08  .590000000000D+02
     .396006000000D+06  .400000000000D+01
